IRIDIUM 33 DEB          
1 34775U 97051LU  25018.42545189  .00055188  00000+0  66995-2 0  9995
2 34775  86.3538 173.9384 0019571 325.0173  93.9750 14.83139755835432
IRIDIUM 33 DEB          
1 34833U 97051MH  25018.92240687  .00006637  00000+0  17268-2 0  9994
2 34833  86.3964 191.8596 0021500 113.7031  39.1338 14.49369283829692
IRIDIUM 33 DEB          
1 34870U 97051MQ  25018.71029774  .00014620  00000+0  25147-2 0  9990
2 34870  86.3132 103.3371 0020444 245.6247 270.1151 14.68391267840836
IRIDIUM 33 DEB          
1 34896U 97051MY  25018.55058050  .00009286  00000+0  18450-2 0  9990
2 34896  86.3314 113.3430 0027850 259.1007 162.1428 14.61814200835230
IRIDIUM 33 DEB          
1 34926U 97051NF  25018.86164694  .00029710  00000+0  87318-2 0  9993
2 34926  86.1497 158.3521 0113098 298.3313 215.7335 14.39915837817133
IRIDIUM 33 DEB          
1 34928U 97051NH  25015.04876940  .00048501  00000+0  42594-2 0  9992
2 34928  86.3814 130.2949 0015431  72.5847 287.7069 14.96274066839209
IRIDIUM 33 DEB          
1 34985U 97051NR  25017.93014618  .00002953  00000+0  92512-3 0  9998
2 34985  86.3712 196.8566 0020687 227.5106 290.4300 14.40246239824394
IRIDIUM 33 DEB          
1 35051U 97051NX  25017.34858973  .00004610  00000+0  13053-2 0  9992
2 35051  86.3283 152.1723 0009257 104.7326 255.4902 14.45377384822345
IRIDIUM 33 DEB          
1 35052U 97051NY  25018.81476485  .00001388  00000+0  45325-3 0  9997
2 35052  86.3350 160.9716 0013344  81.0475 279.2232 14.37883156825628
IRIDIUM 33 DEB          
1 35080U 97051PF  25018.93965412  .00041812  00000+0  98622-2 0  9997
2 35080  86.2268 204.1548 0111728 226.4789 132.7093 14.50246251648825
IRIDIUM 33 DEB          
1 35296U 97051PL  25015.93851090  .00575328  00000+0  84651-2 0  9990
2 35296  86.2927  95.1831 0010146 303.3669  56.6620 15.53425324830268
IRIDIUM 33 DEB          
1 35297U 97051PM  25009.85813234  .00003067  00000+0  91019-3 0  9996
2 35297  86.3879 206.1765 0015710 174.6965 185.4405 14.42952491821704
IRIDIUM 33 DEB          
1 35299U 97051PP  25018.89928425  .00008227  00000+0  26855-2 0  9999
2 35299  86.2950 175.4879 0058200 101.6771  51.5410 14.37542752817292
IRIDIUM 33 DEB          
1 35480U 97051QA  25017.13326854  .00004940  00000+0  13380-2 0  9992
2 35480  86.3617 167.5177 0014906 123.3010 236.9624 14.47483512822594
IRIDIUM 33 DEB          
1 35484U 97051QE  25019.07200088  .00039120  00000+0  52447-2 0  9996
2 35484  86.3697 143.4615 0028909 219.0441 140.8693 14.78908738830870
IRIDIUM 33 DEB          
1 35488U 97051QJ  25018.15118729  .00013458  00000+0  19952-2 0  9998
2 35488  86.3262  91.3132 0032667 111.6222 248.8481 14.74641231834097
IRIDIUM 33 DEB          
1 35616U 97051QN  25019.04164228  .00020267  00000+0  32526-2 0  9993
2 35616  86.3598 134.0908 0012994 246.0104 113.9752 14.71504228829594
IRIDIUM 33 DEB          
1 35618U 97051QQ  25012.11648543  .00003065  00000+0  77565-3 0  9993
2 35618  86.3426 139.5965 0031024  60.7440 299.6860 14.50376200605406
IRIDIUM 33 DEB          
1 35620U 97051QS  25018.63103844  .00014440  00000+0  50202-2 0  9996
2 35620  86.3909 354.5997 0159647 241.2572 117.2502 14.28466473552690
IRIDIUM 33 DEB          
1 35622U 97051QU  25019.11534438  .00023835  00000+0  32547-2 0  9999
2 35622  86.2091  60.5542 0015177  18.5470  36.1892 14.78417733826352
IRIDIUM 33 DEB          
1 35628U 97051RA  25018.12723674  .00013176  00000+0  26744-2 0  9996
2 35628  86.3631 154.8655 0013387  14.8188 345.3412 14.61042116816372
IRIDIUM 33 DEB          
1 35631U 97051RD  25018.86609598  .00003334  00000+0  92720-3 0  9992
2 35631  86.3712 162.0128 0018765 131.5723  20.8327 14.46093578824560
IRIDIUM 33 DEB          
1 35632U 97051RE  25016.44948330  .00113596  00000+0  91108-2 0  9995
2 35632  86.3939 275.8782 0033541 166.5155 193.6981 14.99111537810314
IRIDIUM 33 DEB          
1 35680U 97051RJ  25017.37987608  .00018491  00000+0  81515-2 0  9991
2 35680  86.1095 166.6819 0171599 245.8568 142.1500 14.15716808560320
IRIDIUM 33 DEB          
1 35744U 97051RX  25018.50698945  .00012024  00000+0  22256-2 0  9994
2 35744  86.3315 113.0454 0023894 246.2153 113.6554 14.65079801825155
IRIDIUM 33 DEB          
1 35797U 97051SF  25018.00278804  .00019924  00000+0  31469-2 0  9997
2 35797  86.3423 119.7086 0016342 231.0382 128.9379 14.72167230824866
IRIDIUM 33 DEB          
1 35806U 97051SQ  25015.13251793  .00007738  00000+0  18850-2 0  9996
2 35806  86.3506 166.0816 0014596 107.6472 252.6329 14.52567553815020
IRIDIUM 33 DEB          
1 35809U 97051ST  25013.04069824  .00011176  00000+0  19896-2 0  9991
2 35809  86.3324 126.2369 0014920 319.7411  40.2697 14.66929399819008
IRIDIUM 33 DEB          
1 35846U 97051SW  25015.76520370  .00003168  00000+0  97372-3 0  9999
2 35846  86.3764 199.7644 0018037 185.5182 174.5822 14.41232721665587
IRIDIUM 33 DEB          
1 35848U 97051SY  25016.13672584  .00014585  00000+0  24752-2 0  9994
2 35848  86.3963 163.6549 0010140 285.2884  74.7210 14.69091141814035
IRIDIUM 33 DEB          
1 35850U 97051TA  25018.59449876  .00018735  00000+0  31407-2 0  9991
2 35850  86.3547 132.4210 0012750 261.4912  98.4859 14.69600419826019
IRIDIUM 33 DEB          
1 35911U 97051TU  25018.27503065  .00077638  00000+0  11211-1 0  9992
2 35911  86.2106 135.7042 0041132 107.8332 252.7380 14.75234402821786
IRIDIUM 33 DEB          
1 35915U 97051TY  25010.60102455  .00017230  00000+0  28528-2 0  9995
2 35915  86.3482 135.2393 0015097 294.5624  65.4018 14.70128444814963
IRIDIUM 33 DEB          
1 35918U 97051UB  25017.31751453  .00006456  00000+0  17481-2 0  9995
2 35918  86.4029 216.6443 0026743 191.5328 290.8422 14.47382059804354
IRIDIUM 33 DEB          
1 35929U 97051UN  25017.54917029  .00027866  00000+0  33917-2 0  9995
2 35929  86.3403 106.0770 0020753 125.9428 234.3724 14.83154073829384
IRIDIUM 33 DEB          
1 36011U 97051US  25014.23960944  .00002756  00000+0  87226-3 0  9999
2 36011  86.3444 178.0080 0017884 235.1599 249.2002 14.39749963806613
IRIDIUM 33 DEB          
1 36012U 97051UT  25018.41105650  .00008372  00000+0  35451-2 0  9991
2 36012  86.4470  78.7617 0239518 218.1225 140.2806 14.11103868608444
IRIDIUM 33 DEB          
1 36028U 97051VK  25018.51185933  .00023266  00000+0  30555-2 0  9990
2 36028  86.3286  99.0565 0024335 135.9474 224.3691 14.79939659823358
IRIDIUM 33 DEB          
1 36080U 97051VM  25016.07483336  .00003978  00000+0  11457-2 0  9993
2 36080  86.3241 151.7904 0017854 177.5990 182.5301 14.44454891426379
IRIDIUM 33 DEB          
1 36083U 97051VQ  25018.16612152  .00004752  00000+0  14564-2 0  9991
2 36083  86.3478 175.3633 0026198 230.3550 129.5338 14.41361233807138
IRIDIUM 33 DEB          
1 36390U 97051VU  25015.47059207  .00010689  00000+0  18906-2 0  9999
2 36390  86.2962  90.3815 0034995 231.0222 128.7874 14.66883405834629
IRIDIUM 33 DEB          
1 36483U 97051VZ  25016.22919815  .00003879  00000+0  11331-2 0  9994
2 36483  86.3828 193.6697 0009897 138.4503 221.7452 14.43828930811105
IRIDIUM 33 DEB          
1 36490U 97051WG  25019.11590163  .00019644  00000+0  35108-2 0  9999
2 36490  86.3756 157.1048 0001831 119.5572 240.5825 14.66814255816641
IRIDIUM 33 DEB          
1 36493U 97051WK  25017.13274129  .00010802  00000+0  22778-2 0  9999
2 36493  86.3627 157.4225 0012011  34.4916 325.7071 14.59307551697015
IRIDIUM 33 DEB          
1 37548U 97051XH  25009.23637818  .00006150  00000+0  16752-2 0  9997
2 37548  86.3591 189.7086 0025427 243.2355 116.6246 14.47116908810235
IRIDIUM 33 DEB          
1 37550U 97051XK  25015.69927243  .00010584  00000+0  21662-2 0  9993
2 37550  86.3907 169.8220 0002480 163.6070 196.5222 14.60718877814896
IRIDIUM 33 DEB          
1 37562U 97051XX  25017.70546666  .00009356  00000+0  23009-2 0  9998
2 37562  86.3797 186.5024 0026418 133.1465 238.7770 14.51982301815467
IRIDIUM 33 DEB          
1 38017U 97051YD  25016.77132231  .00008714  00000+0  27108-2 0  9990
2 38017  86.3382 307.9034 0129856 105.9410 255.6139 14.36109147566507
IRIDIUM 33 DEB          
1 38022U 97051YJ  25017.64468765  .00005309  00000+0  17093-2 0  9996
2 38022  86.2787 160.1366 0048118  49.0639 311.4709 14.38478301822737
IRIDIUM 33 DEB          
1 38028U 97051YQ  25017.60164626  .00003495  00000+0  99515-3 0  9991
2 38028  86.3307 143.1835 0029818 135.1419 225.2200 14.44803743783703
IRIDIUM 33 DEB          
1 38228U 97051ZC  25017.73198883  .00001498  00000+0  60190-3 0  9997
2 38228  86.2985 188.1570 0064817 169.0223 202.8730 14.26408724800909
IRIDIUM 33 DEB          
1 38236U 97051ZL  25004.08234698  .00063579  00000+0  73780-2 0  9991
2 38236  86.2483 123.4293 0039824 269.5876  90.0784 14.84522433566559
IRIDIUM 33 DEB          
1 38241U 97051ZR  25018.05175900  .00006366  00000+0  15737-2 0  9998
2 38241  86.3270 135.2616 0004053  92.3690 267.7979 14.51921188554260
IRIDIUM 33 DEB          
1 38469U 97051ZW  25014.30657486  .00825077  00000+0  23106-1 0  9994
2 38469  86.2159 219.8694 0027093  67.6791 292.7327 15.33903710563434
IRIDIUM 33 DEB          
1 38474U 97051AAB 25017.63800700  .00005100  00000+0  13504-2 0  9997
2 38474  86.3338 153.1837 0027761 105.2941 255.1334 14.48400051605508
IRIDIUM 33 DEB          
1 39777U 97051AAJ 25016.14402429  .00014622  00000+0  38931-2 0  9995
2 39777  85.9634 334.5661 0063301 214.2293 145.4822 14.47230594553866
IRIDIUM 33 DEB          
1 39778U 97051AAK 25018.18158932  .00008065  00000+0  20505-2 0  9991
2 39778  86.3825 185.3727 0008976  50.9571 309.2431 14.50597182559236
IRIDIUM 33 DEB          
1 39781U 97051AAN 25018.79047779  .00022127  00000+0  97839-2 0  9997
2 39781  86.3738  32.2983 0193863 227.8958 307.8404 14.13579447 34618
IRIDIUM 33 DEB          
1 40996U 97051ABJ 25014.85281501  .00023748  00000+0  34141-2 0  9990
2 40996  86.3646 153.7422 0008912 145.2141   7.1796 14.76279094575607
